STARLINK-3075           
1 49409U 21104B   26068.66040845 -.00000029  00000+0  16256-4 0  9994
2 49409  53.2175 229.2531 0001306  90.8705 269.2436 15.08836293238633
LEMUR-2-UNTITLED-SC     
1 63351U 25061A   26068.89211098  .00005783  00000+0  33296-3 0  9990
2 63351  97.5556  45.0864 0017373 245.6030 114.3388 15.12695529 52577
